[{"OBJECT_NAME":"JILIN-1 GAOFEN 3A","OBJECT_ID":"2019-032C","EPOCH":"2026-03-09T17:53:24.364896","MEAN_MOTION":15.3027131,"ECCENTRICITY":0.00026181,"INCLINATION":44.9746,"RA_OF_ASC_NODE":183.2861,"ARG_OF_PERICENTER":111.29,"MEAN_ANOMALY":248.8263,"EPHEMERIS_TYPE":0,"CLASSIFICATION_TYPE":"U","NORAD_CAT_ID":44312,"ELEMENT_SET_NO":999,"REV_AT_EPOCH":37259,"BSTAR":0.00055381133,"MEAN_MOTION_DOT":0.00016264,"MEAN_MOTION_DDOT":0},{"OBJECT_NAME":"STARLINK-31056","OBJECT_ID":"2023-192V","EPOCH":"2026-03-09T23:43:04.444032","MEAN_MOTION":15.30192484,"ECCENTRICITY":0.00013249,"INCLINATION":53.161,"RA_OF_ASC_NODE":61.1699,"ARG_OF_PERICENTER":90.8429,"MEAN_ANOMALY":269.2723,"EPHEMERIS_TYPE":0,"CLASSIFICATION_TYPE":"U","NORAD_CAT_ID":58550,"ELEMENT_SET_NO":999,"REV_AT_EPOCH":12603,"BSTAR":6.0407508e-5,"MEAN_MOTION_DOT":1.43e-5,"MEAN_MOTION_DDOT":0}]
